NOAA 1 [-]              
1 04793U 70106A   22355.39310929 -.00000015  00000+0  17804-3 0  9999
2 04793 101.5327  54.3151 0031273 318.5023  52.4660 12.54010040381025
NOAA 2 (ITOS-D) [-]     
1 06235U 72082A   22355.45124241 -.00000023  00000+0  14862-3 0  9994
2 06235 101.9751 338.9926 0004204  76.6775  78.3868 12.53155191295391
NOAA 3 [-]              
1 06920U 73086A   22355.59839696 -.00000030  00000+0  11685-3 0  9990
2 06920 102.2301 337.8336 0006569 307.6585 161.5663 12.40351361224182
NOAA 4 [-]              
1 07529U 74089A   22355.75328312 -.00000030  00000+0  10348-3 0  9991
2 07529 101.9373 336.0940 0009104 104.8699  70.7313 12.53163653200250
NOAA 5 [-]              
1 09057U 76077A   22355.43434823 -.00000041  00000+0  30529-4 0  9994
2 09057 102.1282 321.6087 0009572 153.3175 319.8793 12.37777503 96876
TIROS N [-]             
1 11060U 78096A   22355.63302088  .00000189  00000+0  11206-3 0  9995
2 11060  98.6112  44.1807 0009910 329.2591  30.8003 14.18452474498387
NOAA 6 [-]              
1 11416U 79057A   22356.05308253  .00000297  00000+0  12269-3 0  9995
2 11416  98.6598   7.1776 0011330  67.6429 292.5955 14.33858820268612
NOAA 7 [-]              
1 12553U 81059A   22356.08058236  .00000074  00000+0  59065-4 0  9998
2 12553  98.9745  42.5910 0010652 304.8889  55.1284 14.17362924144592
NOAA 8 [-]              
1 13923U 83022A   22356.44865586  .00000150  00000+0  77210-4 0  9993
2 13923  98.7014 346.4059 0015498  23.4805 336.7081 14.28869080 69514
NOAA 9 [-]              
1 15427U 84123A   22355.47003663  .00000151  00000+0  99416-4 0  9992
2 15427  99.0700 331.0160 0014878 359.3723 111.2144 14.16257788963089
NOAA 10 [-]             
1 16969U 86073A   22356.42605211  .00000130  00000+0  69382-4 0  9999
2 16969  98.5870 339.3006 0013107 119.1680   0.2157 14.28256707887923
NOAA 11 [-]             
1 19531U 88089A   22355.40194862  .00000081  00000+0  62710-4 0  9991
2 19531  98.4443 334.3915 0011259   6.0153 354.1155 14.15341226767265
NOAA 12 [-]             
1 21263U 91032A   22355.48352575  .00000113  00000+0  65264-4 0  9996
2 21263  98.5230 350.1473 0014202 148.1954 212.0087 14.26037678643385
NOAA 13 [-]             
1 22739U 93050A   22356.18506803  .00000115  00000+0  83835-4 0  9996
2 22739  98.5293 326.8451 0009745 160.1489 200.0066 14.12892108513801
NOAA 14 [-]             
1 23455U 94089A   22355.54920069  .00000055  00000+0  50333-4 0  9998
2 23455  98.4350  12.0172 0010186 141.4077 218.7827 14.14225600443150
NOAA 15 [B]             
1 25338U 98030A   22356.51222164  .00000157  00000+0  83450-4 0  9998
2 25338  98.6260  23.4221 0011401 107.9964 252.2460 14.26211055280076
NOAA 16 [-]             
1 26536U 00055A   22355.50529535  .00000110  00000+0  80845-4 0  9993
2 26536  98.6122  47.7199 0010335 357.6982   2.4142 14.13367381443776
NOAA 17 [-]             
1 27453U 02032A   22356.23918685  .00000141  00000+0  78503-4 0  9990
2 27453  98.6954 299.4977 0012925  86.0195 274.2462 14.25179938 65613
NOAA 18 [B]             
1 28654U 05018A   22356.45046447  .00000202  00000+0  13267-3 0  9996
2 28654  98.9311  66.5619 0014737 157.1742 203.0088 14.12825772906612
NOAA 19 [+]             
1 33591U 09005A   22356.47333202  .00000201  00000+0  13331-3 0  9993
2 33591  99.1262  34.3620 0014182  23.7715 336.4108 14.12654797714992
SUOMI NPP [+]           
1 37849U 11061A   22356.41138227  .00000088  00000+0  62596-4 0  9993
2 37849  98.7524 292.4974 0001322  92.3554  55.1850 14.19527929577856
NOAA 20 [+]             
1 43013U 17073A   22356.48732886  .00000071  00000+0  54570-4 0  9995
2 43013  98.7362 292.2383 0000740 113.9713 246.1541 14.19537755263903
